NORAD_CAT_ID,OBJECT_NAME,OBJECT_TYPE,EPOCH,MEAN_MOTION,ECCENTRICITY,INCLINATION,RA_OF_ASC_NODE,ARG_OF_PERICENTER,MEAN_ANOMALY,BSTAR,MEAN_MOTION_DOT,MEAN_MOTION_DDOT,TLE_LINE0,TLE_LINE1,TLE_LINE2,SEMIMAJOR_AXIS,PERIOD,APOGEE,PERIGEE,DECAYED
55403.0,STARLINK-5597,PAYLOAD,2023-03-11 20:48:31,15.69921966,0.0003514,69.9976,339.5341,262.3896,97.6901,-4.5303e-06,-7.58e-06,0.0,0 STARLINK-5597,1 55403U 23014N   23070.86703140 -.00000758  00000-0 -45303-5 0  9990,2 55403  69.9976 339.5341 0003514 262.3896  97.6901 15.69921966  7296,6737.257,91.724,361.49,356.755,0.0
55403.0,STARLINK-5597,PAYLOAD,2023-03-12 02:55:31,15.69921289,0.0003613,69.9976,338.8172,267.0532,93.025,-1.8404e-05,-2.425e-05,0.0,0 STARLINK-5597,1 55403U 23014N   23071.12189772 -.00002425  00000-0 -18404-4 0  9993,2 55403  69.9976 338.8172 0003613 267.0532  93.0250 15.69921289  6394,6737.259,91.724,361.558,356.69,0.0
55403.0,STARLINK-5597,PAYLOAD,2023-03-12 12:06:01,15.69958019,0.0004009,69.9975,337.7422,257.3036,102.7712,0.00015691,0.00018725,0.0,0 STARLINK-5597,1 55403U 23014N   23071.50418691  .00018725  00000-0  15691-3 0  9992,2 55403  69.9975 337.7422 0004009 257.3036 102.7712 15.69958019  6459,6737.154,91.722,361.72,356.318,0.0
55403.0,STARLINK-5597,PAYLOAD,2023-03-12 21:16:33,15.69921369,0.0003702,69.9975,336.6671,260.8286,99.2491,-3.23e-05,-4.095e-05,0.0,0 STARLINK-5597,1 55403U 23014N   23071.88649381 -.00004095  00000-0 -32300-4 0  9999,2 55403  69.9975 336.6671 0003702 260.8286  99.2491 15.69921369  7451,6737.259,91.724,361.618,356.63,0.0
55403.0,STARLINK-5597,PAYLOAD,2023-03-13 03:23:33,15.69900182,0.0003688,69.9974,335.9503,261.0462,99.0316,-0.00012491,-0.00015191,0.0,0 STARLINK-5597,1 55403U 23014N   23072.14136531 -.00015191  00000-0 -12491-3 0  9994,2 55403  69.9974 335.9503 0003688 261.0462  99.0316 15.69900182  6552,6737.32,91.726,361.669,356.7,0.0
55403.0,STARLINK-5597,PAYLOAD,2023-03-13 12:34:04,15.69915677,0.0003878,69.9974,334.8749,257.2792,102.797,0.00020083,0.00023998,0.0,0 STARLINK-5597,1 55403U 23014N   23072.52366814  .00023998  00000-0  20083-3 0  9993,2 55403  69.9974 334.8749 0003878 257.2792 102.7970 15.69915677  6616,6737.275,91.725,361.753,356.528,0.0
55403.0,STARLINK-5597,PAYLOAD,2023-03-13 17:09:20,15.6994383,0.000369,69.9975,334.337,261.2652,98.8126,0.00056485,0.00068321,0.0,0 STARLINK-5597,1 55403U 23014N   23072.71481792  .00068321  00000-0  56485-3 0  9991,2 55403  69.9975 334.3370 0003690 261.2652  98.8126 15.69943830  6647,6737.195,91.723,361.546,356.574,0.0
55403.0,STARLINK-5597,PAYLOAD,2023-03-14 02:19:50,15.69939264,0.0003706,69.9976,333.2624,264.1474,95.9299,0.00019207,0.00022961,0.0,0 STARLINK-5597,1 55403U 23014N   23073.09711509  .00022961  00000-0  19207-3 0  9996,2 55403  69.9976 333.2624 0003706 264.1474  95.9299 15.69939264  6702,6737.208,91.723,361.57,356.576,0.0
55403.0,STARLINK-5597,PAYLOAD,2023-03-14 13:02:06,15.69958234,0.0003597,69.9976,332.0082,270.1937,89.8847,0.00079686,0.00096856,0.0,0 STARLINK-5597,1 55403U 23014N   23073.54312841  .00096856  00000-0  79686-3 0  9993,2 55403  69.9976 332.0082 0003597 270.1937  89.8847 15.69958234  7717,6737.153,91.722,361.442,356.595,0.0
55403.0,STARLINK-5597,PAYLOAD,2023-03-14 19:09:07,15.69921798,0.0003726,69.9978,331.291,267.438,92.6389,0.00071109,0.0008617,0.0,0 STARLINK-5597,1 55403U 23014N   23073.79800136  .00086170  00000-0  71109-3 0  9999,2 55403  69.9978 331.2910 0003726 267.4380  92.6389 15.69921798  6813,6737.258,91.724,361.633,356.612,0.0
55403.0,STARLINK-5597,PAYLOAD,2023-03-14 20:40:52,15.69926299,0.0003642,69.9979,331.112,264.074,96.004,0.00077015,0.00093442,0.0,0 STARLINK-5597,1 55403U 23014N   23073.86171790  .00093442  00000-0  77015-3 0  9996,2 55403  69.9979 331.1120 0003642 264.0740  96.0040 15.69926299  7764,6737.245,91.724,361.564,356.656,0.0
55403.0,STARLINK-5597,PAYLOAD,2023-03-15 02:47:52,15.69944948,0.0003652,69.9979,330.3957,264.0554,96.0226,0.00034265,0.00041228,0.0,0 STARLINK-5597,1 55403U 23014N   23074.11658267  .00041228  00000-0  34265-3 0  9999,2 55403  69.9979 330.3957 0003652 264.0554  96.0226 15.69944948  6864,6737.192,91.723,361.517,356.596,0.0
55403.0,STARLINK-5597,PAYLOAD,2023-03-15 11:58:23,15.69938887,0.0003649,69.9979,329.3206,256.6586,103.4203,0.00042066,0.00050708,0.0,0 STARLINK-5597,1 55403U 23014N   23074.49888134  .00050708  00000-0  42066-3 0  9999,2 55403  69.9979 329.3206 0003649 256.6586 103.4203 15.69938887  6927,6737.209,91.723,361.532,356.615,0.0
55403.0,STARLINK-5597,PAYLOAD,2023-03-15 19:37:07,15.70032751,0.0004281,69.998,328.4244,262.037,98.034,0.00081278,0.00099141,0.0,0 STARLINK-5597,1 55403U 23014N   23074.81744813  .00099141  00000-0  81278-3 0  9992,2 55403  69.9980 328.4244 0004281 262.0370  98.0340 15.70032751  6979,6736.94,91.718,361.689,355.921,0.0
55403.0,STARLINK-5597,PAYLOAD,2023-03-15 21:08:52,15.70028455,0.0004209,69.998,328.2458,261.0871,98.9849,0.00055449,0.00067298,0.0,0 STARLINK-5597,1 55403U 23014N   23074.88116177  .00067298  00000-0  55449-3 0  9994,2 55403  69.9980 328.2458 0004209 261.0871  98.9849 15.70028455  7924,6736.953,91.718,361.653,355.982,0.0
55403.0,STARLINK-5597,PAYLOAD,2023-03-16 03:15:52,15.69952704,0.0004328,69.998,327.5297,262.3026,97.7679,-0.00012189,-0.00014864,0.0,0 STARLINK-5597,1 55403U 23014N   23075.13602576 -.00014864  00000-0 -12189-3 0  9993,2 55403  69.9980 327.5297 0004328 262.3026  97.7679 15.69952704  7025,6737.169,91.723,361.95,356.118,0.0
55403.0,STARLINK-5597,PAYLOAD,2023-03-16 10:54:38,15.69882315,0.000444,69.9985,326.6332,269.956,90.1126,0.00026266,0.0003144,0.0,0 STARLINK-5597,1 55403U 23014N   23075.45461426  .00031440  00000-0  26266-3 0  9993,2 55403  69.9985 326.6332 0004440 269.9560  90.1126 15.69882315  7070,6737.371,91.727,362.227,356.244,0.0
55403.0,STARLINK-5597,PAYLOAD,2023-03-16 12:26:23,15.69891049,0.000437,69.9985,326.4541,271.7747,88.2948,0.00045264,0.00054504,0.0,0 STARLINK-5597,1 55403U 23014N   23075.51833247  .00054504  00000-0  45264-3 0  9999,2 55403  69.9985 326.4541 0004370 271.7747  88.2948 15.69891049  8020,6737.346,91.726,362.155,356.266,0.0
55403.0,STARLINK-5597,PAYLOAD,2023-03-16 20:05:10,15.69875561,0.0004161,69.9985,325.5583,272.7854,87.2865,0.00055251,0.00066627,0.0,0 STARLINK-5597,1 55403U 23014N   23075.83693080  .00066627  00000-0  55251-3 0  9999,2 55403  69.9985 325.5583 0004161 272.7854  87.2865 15.69875561  7133,6737.39,91.727,362.058,356.452,0.0
55403.0,STARLINK-5597,PAYLOAD,2023-03-17 09:50:57,15.69931796,0.000416,69.9987,323.9461,268.1101,91.9619,0.00046095,0.00055607,0.0,0 STARLINK-5597,1 55403U 23014N   23076.41038770  .00055607  00000-0  46095-3 0  9995,2 55403  69.9987 323.9461 0004160 268.1101  91.9619 15.69931796  7227,6737.229,91.724,361.897,356.291,0.0
55403.0,STARLINK-5597,PAYLOAD,2023-03-17 20:33:12,15.69958639,0.0004174,69.9986,322.6917,267.0198,93.0521,0.00042463,0.00051239,0.0,0 STARLINK-5597,1 55403U 23014N   23076.85640033  .00051239  00000-0  42463-3 0  9996,2 55403  69.9986 322.6917 0004174 267.0198  93.0521 15.69958639  8239,6737.152,91.722,361.829,356.205,0.0
55403.0,STARLINK-5597,PAYLOAD,2023-03-18 02:40:13,15.69937846,0.000408,69.9986,321.9751,262.8005,97.2727,0.00034732,0.00041787,0.0,0 STARLINK-5597,1 55403U 23014N   23077.11126642  .00041787  00000-0  34732-3 0  9998,2 55403  69.9986 321.9751 0004080 262.8005  97.2727 15.69937846  7334,6737.212,91.723,361.826,356.328,0.0
55403.0,STARLINK-5597,PAYLOAD,2023-03-18 19:29:29,15.69931797,0.0003828,69.9985,320.0046,264.8385,95.2374,0.00011641,0.00013813,0.0,0 STARLINK-5597,1 55403U 23014N   23077.81215151  .00013813  00000-0  11641-3 0  9992,2 55403  69.9985 320.0046 0003828 264.8385  95.2374 15.69931797  7449,6737.229,91.724,361.673,356.515,0.0
55403.0,STARLINK-5597,PAYLOAD,2023-03-18 22:33:00,15.69932969,0.000382,69.9984,319.6471,265.9413,94.1346,9.1244e-05,0.00010777,0.0,0 STARLINK-5597,1 55403U 23014N   23077.93958399  .00010777  00000-0  91244-4 0  9997,2 55403  69.9984 319.6471 0003820 265.9413  94.1346 15.69932969  8406,6737.226,91.724,361.664,356.517,0.0
55403.0,STARLINK-5597,PAYLOAD,2023-03-19 01:36:30,15.69921826,0.0004087,69.9984,319.2881,264.7974,95.2756,4.291e-06,3.03e-06,0.0,0 STARLINK-5597,1 55403U 23014N   23078.06701941  .00000303  00000-0  42910-5 0  9992,2 55403  69.9984 319.2881 0004087 264.7974  95.2756 15.69921826  7486,6737.258,91.724,361.876,356.369,0.0
55403.0,STARLINK-5597,PAYLOAD,2023-03-19 09:15:15,15.69939696,0.0004356,69.9979,318.3924,260.2879,99.7824,7.9068e-05,9.313e-05,0.0,0 STARLINK-5597,1 55403U 23014N   23078.38559616  .00009313  00000-0  79068-4 0  9990,2 55403  69.9979 318.3924 0004356 260.2879  99.7824 15.69939696  7537,6737.207,91.723,362.006,356.137,0.0
55403.0,STARLINK-5597,PAYLOAD,2023-03-19 18:25:46,15.69936683,0.0003317,70.0,317.3177,256.1469,103.9358,4.2346e-05,4.885e-05,0.0,0 STARLINK-5597,1 55403U 23014N   23078.76789961  .00004885  00000-0  42346-4 0  9998,2 55403  70.0000 317.3177 0003317 256.1469 103.9358 15.69936683  7598,6737.215,91.723,361.315,356.845,0.0
55403.0,STARLINK-5597,PAYLOAD,2023-03-20 03:36:17,15.69916297,0.000356,69.9976,316.2417,273.213,86.8658,-1.2179e-05,-1.677e-05,0.0,0 STARLINK-5597,1 55403U 23014N   23079.15020660 -.00001677  00000-0 -12179-4 0  9995,2 55403  69.9976 316.2417 0003560 273.2130  86.8658 15.69916297  7655,6737.273,91.725,361.537,356.74,0.0
55403.0,STARLINK-5597,PAYLOAD,2023-03-20 18:53:49,15.69918599,0.0003807,69.9981,314.4515,269.6005,90.4754,1.1506e-05,1.17e-05,0.0,0 STARLINK-5597,1 55403U 23014N   23079.78737527  .00001170  00000-0  11506-4 0  9990,2 55403  69.9981 314.4515 0003807 269.6005  90.4754 15.69918599  8694,6737.267,91.725,361.697,356.567,0.0
55403.0,STARLINK-5597,PAYLOAD,2023-03-21 01:00:49,15.69935079,0.0003344,69.9984,313.7354,259.8033,100.2786,4.5086e-05,5.214e-05,0.0,0 STARLINK-5597,1 55403U 23014N   23080.04223601  .00005214  00000-0  45086-4 0  9997,2 55403  69.9984 313.7354 0003344 259.8033 100.2786 15.69935079  7795,6737.22,91.724,361.338,356.832,0.0
